IRIDIUM 7               
1 24793U 97020B   24355.42105485  .00000709  00000+0  23888-3 0  9998
2 24793  86.3962 251.7778 0002098  74.9036 285.2393 14.35669077446246
IRIDIUM 5               
1 24795U 97020D   24355.50164248  .00005524  00000+0  48074-3 0  9995
2 24795  86.3921 165.9203 0116372  59.0842 302.1763 14.91551080458803
IRIDIUM 4               
1 24796U 97020E   24355.44771806  .00000683  00000+0  22577-3 0  9994
2 24796  86.3959 248.7597 0002238  80.8069 279.3381 14.36582886446804
IRIDIUM 914             
1 24836U 97030A   24355.25203907  .00000896  00000+0  27528-3 0  9998
2 24836  86.3935 257.9860 0003886  86.0060 274.1583 14.40542533581365
IRIDIUM 16              
1 24841U 97030F   24355.50138480  .00000864  00000+0  27721-3 0  9995
2 24841  86.4027 280.3524 0001129  10.6660 349.4562 14.38405242441313
IRIDIUM 911             
1 24842U 97030G   24355.55140572  .00001214  00000+0  32665-3 0  9999
2 24842  86.4452 279.2841 0013665 342.9167  17.1575 14.47213739449247
IRIDIUM 17              
1 24870U 97034B   24355.58706739  .00000952  00000+0  31150-3 0  9996
2 24870  86.3952 309.8835 0001089 126.4199 233.7099 14.37507730437927
IRIDIUM 920             
1 24871U 97034C   24355.53323608  .00000997  00000+0  30287-3 0  9991
2 24871  86.3967 289.5344 0010154 321.3464  38.7007 14.41215697440847
